STARLINK-34163          
1 64008U 25101Q   26068.16881443  .00045628  00000+0  16562-2 0  9990
2 64008  43.0016   1.0719 0003820 246.0935 113.9516 15.27598639 46971
2025-313BC              
1 67298U 25313BC  26068.18968176  .00075331  00000+0  26410-2 0  9997
2 67298  97.3985 144.8110 0008478 328.9209  31.1528 15.29126358  7890
